[{"OBJECT_NAME":"STARLINK-32263","OBJECT_ID":"2024-138S","EPOCH":"2026-03-09T21:32:12.571008","MEAN_MOTION":15.30186902,"ECCENTRICITY":0.00010471,"INCLINATION":53.1598,"RA_OF_ASC_NODE":308.3393,"ARG_OF_PERICENTER":90.2189,"MEAN_ANOMALY":269.8932,"EPHEMERIS_TYPE":0,"CLASSIFICATION_TYPE":"U","NORAD_CAT_ID":60371,"ELEMENT_SET_NO":999,"REV_AT_EPOCH":9056,"BSTAR":2.2275173e-5,"MEAN_MOTION_DOT":3.01e-6,"MEAN_MOTION_DDOT":0},{"OBJECT_NAME":"GEOSCAN 2 (RS92S2)","OBJECT_ID":"2025-155Q","EPOCH":"2026-03-09T23:01:48.939744","MEAN_MOTION":15.28709337,"ECCENTRICITY":0.00085277,"INCLINATION":97.4463,"RA_OF_ASC_NODE":37.5259,"ARG_OF_PERICENTER":140.9505,"MEAN_ANOMALY":219.2352,"EPHEMERIS_TYPE":0,"CLASSIFICATION_TYPE":"U","NORAD_CAT_ID":64890,"ELEMENT_SET_NO":999,"REV_AT_EPOCH":6561,"BSTAR":0.00051551761,"MEAN_MOTION_DOT":0.00014341,"MEAN_MOTION_DDOT":0}]
